73P-AF/Schwassmann-Wachmann,e,11.356,70.302,198.217,3.06961,0.183265,0.6933024,359.846,06/06.0/2006,2000,g  9.0,4.0
# From MPC 56798
73P-AG/Schwassmann-Wachmann,e,11.386,69.932,198.724,3.06233,0.183919,0.6933024,359.997,06/09.0/2006,2000,g  9.0,4.0
# From MPC 56798
73P-AH/Schwassmann-Wachmann,e,11.331,70.695,197.755,3.07445,0.182832,0.6933024,359.885,06/08.0/2006,2000,g  9.0,4.0
# From MPC 56798
73P-AI/Schwassmann-Wachmann,e,11.392,69.885,198.806,3.06205,0.183944,0.6933024,359.864,06/08.0/2006,2000,g  9.0,4.0
# From MPC 56799
73P-AJ/Schwassmann-Wachmann,e,11.385,70.041,198.663,3.06262,0.183892,0.6933024,359.864,06/08.0/2006,2000,g  9.0,4.0
# From MPC 56799
73P-AK/Schwassmann-Wachmann,e,11.389,69.784,198.822,3.06244,0.183909,0.6933024,359.927,06/08.0/2006,2000,g  9.0,4.0
# From MPC 56799
73P-AL/Schwassmann-Wachmann,e,11.395,69.843,198.857,3.06140,0.184003,0.6933024,359.916,06/08.0/2006,2000,g  9.0,4.0
# From MPC 56799
73P-AM/Schwassmann-Wachmann,e,11.394,69.876,198.815,3.06205,0.183944,0.6933024,359.951,06/08.0/2006,2000,g  9.0,4.0
# From MPC 56799
73P-AN/Schwassmann-Wachmann,e,11.393,69.870,198.820,3.06185,0.183962,0.6933024,359.940,06/08.0/2006,2000,g  9.0,4.0
# From MPC 56799
73P-AO/Schwassmann-Wachmann,e,11.210,71.286,197.007,3.07823,0.182496,0.6933024,359.853,06/07.0/2006,2000,g  9.0,4.0
# From MPC 56799
73P-AP/Schwassmann-Wachmann,e,11.393,69.895,198.794,3.06223,0.183928,0.6933024,359.874,06/06.0/2006,2000,g  9.0,4.0
# From MPC 56799
73P-AQ/Schwassmann-Wachmann,e,11.387,69.911,198.770,3.06230,0.183921,0.6933024,359.831,06/07.0/2006,2000,g  9.0,4.0
# From MPC 56799
73P-AR/Schwassmann-Wachmann,e,11.385,69.946,198.722,3.06285,0.183872,0.6933024,359.847,06/06.0/2006,2000,g  9.0,4.0
# From MPC 56799
73P-AS/Schwassmann-Wachmann,e,11.392,69.906,198.773,3.06237,0.183915,0.6933024,359.938,06/06.0/2006,2000,g  9.0,4.0
# From MPC 56799
73P-AT/Schwassmann-Wachmann,e,11.391,69.901,198.778,3.06248,0.183905,0.6933024,359.958,06/06.0/2006,2000,g  9.0,4.0
# From MPC 56799
73P-AU/Schwassmann-Wachmann,e,11.385,69.928,198.744,3.06261,0.183894,0.6933024,359.983,06/08.0/2006,2000,g  9.0,4.0
# From MPC 56800
73P-AV/Schwassmann-Wachmann,e,11.388,69.945,198.751,3.06263,0.183892,0.6933024,359.910,06/06.0/2006,2000,g  9.0,4.0
# From MPC 56800
73P-AW/Schwassmann-Wachmann,e,11.377,69.982,198.673,3.06318,0.183843,0.6933024,359.859,06/07.0/2006,2000,g  9.0,4.0
# From MPC 56800
73P-AX/Schwassmann-Wachmann,e,11.388,69.915,198.757,3.06205,0.183944,0.6933024,359.902,06/09.0/2006,2000,g  9.0,4.0
# From MPC 56800
73P-AY/Schwassmann-Wachmann,e,11.385,69.923,198.750,3.06223,0.183927,0.6933024,359.860,06/08.0/2006,2000,g  9.0,4.0
# From MPC 56800
73P-AZ/Schwassmann-Wachmann,e,11.371,70.002,198.644,3.06367,0.183798,0.6933024,359.905,06/06.0/2006,2000,g  9.0,4.0
# From MPC 56800
73P-BA/Schwassmann-Wachmann,e,11.364,70.042,198.588,3.06413,0.183756,0.6933024,359.920,06/06.0/2006,2000,g  9.0,4.0
# From MPC 56800
73P-BB/Schwassmann-Wachmann,e,11.395,69.882,198.807,3.06205,0.183944,0.6933024,359.984,06/07.0/2006,2000,g  9.0,4.0
# From MPC 56800
73P-BC/Schwassmann-Wachmann,e,11.391,69.901,198.778,3.06235,0.183917,0.6933024,359.877,06/06.0/2006,2000,g  9.0,4.0
# From MPC 56800
73P-BD/Schwassmann-Wachmann,e,11.352,70.085,198.503,3.06483,0.183694,0.6933024,359.923,06/06.0/2006,2000,g  9.0,4.0
# From MPC 56800
73P-BE/Schwassmann-Wachmann,e,11.405,69.841,198.861,3.06171,0.183975,0.6933024,359.841,06/06.0/2006,2000,g  9.0,4.0
# From MPC 56800
73P-BF/Schwassmann-Wachmann,e,11.390,69.908,198.752,3.06223,0.183928,0.6933024,359.818,06/06.0/2006,2000,g  9.0,4.0
# From MPC 56800
73P-BG/Schwassmann-Wachmann,e,11.384,69.925,198.750,3.06214,0.183936,0.6933024,359.864,06/08.0/2006,2000,g  9.0,4.0
# From MPC 56801
73P-BH/Schwassmann-Wachmann,e,11.410,69.752,198.947,3.06079,0.184058,0.6933024,359.895,06/08.0/2006,2000,g  9.0,4.0
# From MPC 56801
73P-BI/Schwassmann-Wachmann,e,11.404,69.819,198.877,3.06179,0.183967,0.6933024,359.882,06/08.0/2006,2000,g  9.0,4.0
# From MPC 56801
73P-BJ/Schwassmann-Wachmann,e,11.389,69.905,198.776,3.06209,0.183941,0.6933024,359.877,06/08.0/2006,2000,g  9.0,4.0
# From MPC 56801
73P-BK/Schwassmann-Wachmann,e,11.379,69.970,198.698,3.06264,0.183891,0.6933024,359.837,06/08.0/2006,2000,g  9.0,4.0
# From MPC 56801
73P-BL/Schwassmann-Wachmann,e,11.385,69.930,198.739,3.06239,0.183914,0.6933024,359.837,06/08.0/2006,2000,g  9.0,4.0
# From MPC 56801
73P-BM/Schwassmann-Wachmann,e,11.364,70.086,198.546,3.06367,0.183798,0.6933024,359.827,06/08.0/2006,2000,g  9.0,4.0
# From MPC 56801
73P-BN/Schwassmann-Wachmann,e,11.398,69.871,198.815,3.06180,0.183967,0.6933024,359.963,06/08.0/2006,2000,g  9.0,4.0
# From MPC 56801
73P-BO/Schwassmann-Wachmann,e,11.390,69.903,198.765,3.06206,0.183943,0.6933024,359.952,06/08.0/2006,2000,g  9.0,4.0
# From MPC 56801
73P-BP/Schwassmann-Wachmann,e,11.395,69.881,198.807,3.06196,0.183952,0.6933024,359.944,06/08.0/2006,2000,g  9.0,4.0
# From MPC 56801
73P-BQ/Schwassmann-Wachmann,e,11.404,69.836,198.862,3.06166,0.183979,0.6933024,359.945,06/08.0/2006,2000,g  9.0,4.0
# From MPC 56957
73P-BR/Schwassmann-Wachmann,e,11.389,69.910,198.774,3.06233,0.183918,0.6933024,359.971,06/06.0/2006,2000,g  9.0,4.0
# From MPC 56957
73P-BS/Schwassmann-Wachmann,e,11.399,69.885,198.814,3.06224,0.183927,0.6933024,359.847,06/05.0/2006,2000,g  9.0,4.0
# From MPC106348
73P-BT/Schwassmann-Wachmann,e,11.0325,198.0337,70.5794,3.079678,0.1823670,0.69327030,142.0911,10/18.0/2024,2000,g 11.5,6.0
# From MPEC 2022-P18
73P-BU/Schwassmann-Wachmann,e,10.9989,199.2743,71.0057,2.867453,0.2029830,0.67135805,158.8512,10/18.0/2024,2000,g 19.0,4.0
# From MPEC 2022-X67
73P-BV/Schwassmann-Wachmann,e,11.3174,69.3615,198.7633,3.118215,0.1789967,0.70392801,139.2846,10/18.0/2024,2000,g 19.0,4.0
# From MPEC 2022-R15
73P-BW/Schwassmann-Wachmann,e,10.2428,193.3819,71.3422,4.531862,0.1021619,0.78754617,80.1567,10/18.0/2024,2000,g 18.2,4.0
# From MPEC 2023-A50
73P-BX/Schwassmann-Wachmann,e,11.3327,69.3604,198.8280,3.099383,0.1806305,0.70129596,140.5270,10/18.0/2024,2000,g 17.5,4.0
# From MPEC 2022-R15
73P-BY/Schwassmann-Wachmann,e,11.0441,198.3010,70.5224,3.021665,0.1876440,0.68707081,146.7924,10/18.0/2024,2000,g 17.4,4.0
# From MPEC 2024-TD8
74P/Smirnova-Chernykh,e,6.3863,53.6906,95.4230,4.935888,0.0898786,0.03378647,276.2622,10/18.0/2024,2000,g  5.0,6.0
# From CCO 7
75D/Kohoutek,e,5.9265,269.5525,175.5657,3.537090,0.1481613,0.49945216,195.4980,10/18.0/2024,2000,g  9.5,6.0
# From MPEC 2022-K19
76P/West-Kohoutek-Ikemura,e,30.4888,84.1126,359.9736,3.468361,0.1525870,0.53940267,277.2158,10/18.0/2024,2000,g  8.0,12.0
# From MPEC 2024-R10
77P/Longmore,e,24.3201,14.7569,196.6543,3.621364,0.1430197,0.35166082,80.6836,10/18.0/2024,2000,g  7.0,8.0
# From MPEC 2024-Q20
78P/Gehrels,e,6.2574,210.5147,192.7217,3.734787,0.1365543,0.46315943,276.0184,10/18.0/2024,2000,g  5.5,8.0
# From MPEC 2024-PC5
79P/duToit-Hartley,e,3.1489,280.5158,281.7643,2.943190,0.1951986,0.61919790,74.8971,10/18.0/2024,2000,g 16.0,4.0
# From MPEC 2024-Q20
80P/Peters-Hartley,e,29.9255,259.7757,339.2889,4.022492,0.1221691,0.59793257,83.0071,10/18.0/2024,2000,g  9.0,8.0
# From MPEC 2024-RQ6
81P/Wild,e,3.2374,136.0943,41.5681,3.452171,0.1536617,0.53738941,103.3206,10/18.0/2024,2000,g  7.0,6.0
# From MPC133426
82P/Gehrels,e,1.1293,239.2220,226.4426,4.131994,0.1173450,0.12263035,270.9427,10/18.0/2024,2000,g 15.0,4.0
# From NK 932
83D/Russell,e,17.8278,226.3013,334.4059,3.843738,0.1307897,0.44128670,162.8344,10/18.0/2024,2000,g  9.0,4.0
# From MPEC 2020-FB5
84P/Giclas,e,7.5520,108.1487,281.6727,3.550105,0.1473473,0.51591548,235.1413,10/18.0/2024,2000,g  9.5,8.0
# From unp
85D/Boethin,e,4.1740,65.2860,333.0854,5.045177,0.0869740,0.77615969,133.9899,10/18.0/2024,2000,g  6.5,8.0
# From MPEC 2022-YB4
86P/Wild,e,15.5319,72.0809,180.9604,3.635621,0.1421792,0.36684464,139.9486,10/18.0/2024,2000,g 11.0,6.0
# From MPEC 2020-SI8
87P/Bus,e,2.6934,185.9450,51.7636,4.326500,0.1095214,0.22552125,182.6761,10/18.0/2024,2000,g  7.2,10.0
# From MPEC 2024-C04
88P/Howell,e,4.3820,56.6669,235.9024,3.107723,0.1799039,0.56317696,267.0189,10/18.0/2024,2000,g 11.0,6.0
# From MPEC 2024-U18
89P/Russell,e,12.0722,41.3442,250.4031,3.750834,0.1356789,0.40762812,27.8683,10/18.0/2024,2000,g 11.5,6.0
# From MPEC 2022-K19
90P/Gehrels,e,9.6444,13.2043,29.1482,6.052838,0.0661859,0.51097394,176.9170,10/18.0/2024,2000,g  8.5,6.0
# From MPEC 2023-VM5
91P/Russell,e,16.6270,242.7078,358.5573,4.069776,0.1200462,0.27671970,186.2121,10/18.0/2024,2000,g  7.5,6.0
# From MPEC 2014-J58
92P/Sanguin,e,19.4874,181.3723,163.7961,5.343246,0.0797988,0.66028757,280.1861,10/18.0/2024,2000,g 12.0,6.0
# From MPEC 2024-R10
93P/Lovas,e,12.2069,339.5638,74.9875,4.375894,0.1076723,0.61402698,299.5041,10/18.0/2024,2000,g  9.5,6.0
# From MPEC 2024-R10
94P/Russell,e,6.1880,70.8519,92.3841,3.510355,0.1498572,0.36579286,77.3185,10/18.0/2024,2000,g  9.0,6.0
# From MPC 75717
95P/Chiron,e,6.9244,209.1968,339.3650,13.70567,0.0194247,0.37743037,204.9825,10/18.0/2024,2000,g  6.5,2.0
# From MPEC 2023-N01
96P/Machholz,e,57.5732,93.9598,14.7376,3.030998,0.1867780,0.96166551,116.8912,10/18.0/2024,2000,g 13.0,4.8
# From MPC106348
96P-B/Machholz,e,57.5025,14.6718,93.9730,3.030030,0.1868675,0.96169029,116.9550,10/18.0/2024,2000,g 13.0,4.8
# From MPC103849
96P-C/Machholz,e,58.5311,94.3495,15.5380,3.011920,0.1885553,0.95889850,359.8715,07/14.0/2012,2000,g  9.0,4.0
# From MPEC 2024-GJ3
97P/Metcalf-Brewington,e,17.9446,184.0797,230.1460,4.768085,0.0946647,0.46020306,92.2927,10/18.0/2024,2000,g  5.5,6.0
# From MPEC 2021-W31
98P/Takamizawa,e,10.5899,114.5879,157.7086,3.787213,0.1337287,0.56367332,184.9420,10/18.0/2024,2000,g  9.0,8.0
# From MPEC 2024-R10
99P/Kowal,e,4.3391,28.0831,174.5956,6.095311,0.0654953,0.22856731,60.4219,10/18.0/2024,2000,g  4.5,6.0
# From MPEC 2023-OA6
100P/Hartley,e,25.5671,37.6859,181.9563,3.430561,0.1551159,0.41144522,124.0108,10/18.0/2024,2000,g  9.0,8.0
# From MPEC 2024-R10
101P/Chernykh,e,5.0487,116.1414,277.9351,5.815292,0.0702824,0.59601776,122.2610,10/18.0/2024,2000,g 10.0,4.8
